DMSP 5D-3 F16 (USA 172) 
1 28054U 03048A   26169.65816233 -.00000037  00000+0  46015-5 0  9993
2 28054  98.9890 193.4963 0007812 136.4373 325.8706 14.14483183169693
METEOSAT-9 (MSG-2)      
1 28912U 05049B   26169.68740645  .00000114  00000+0  00000+0 0  9998
2 28912   9.3655  54.1547 0001706 345.0869 160.7903  1.00272911  7014
DMSP 5D-3 F17 (USA 191) 
1 29522U 06050A   26169.65463353 -.00000014  00000+0  14922-4 0  9997
2 29522  98.7378 176.1948 0011124  55.5767 304.6456 14.14993111 12638
FENGYUN 3A              
1 32958U 08026A   26169.59796868  .00000060  00000+0  49021-4 0  9990
2 32958  98.6883 110.4048 0009645 119.9737 240.2398 14.19571403935606
GOES 14                 
1 35491U 09033A   26169.71458669 -.00000304  00000+0  00000+0 0  9993
2 35491   1.6949  83.0245 0001831  12.4134 209.7079  1.00110439  6608
DMSP 5D-3 F18 (USA 210) 
1 35951U 09057A   26169.69682610  .00000219  00000+0  13671-3 0  9998
2 35951  98.9038 150.4626 0009924 244.7269 115.2876 14.14897572859802
EWS-G2 (GOES 15)        
1 36411U 10008A   26169.62222130  .00000013  00000+0  00000+0 0  9998
2 36411   1.2824  82.8216 0004826  42.0801  69.6456  1.00266285 59657
COMS 1                  
1 36744U 10032A   26169.14747284  .00000070  00000+0  00000+0 0  9996
2 36744   4.8083  75.3434 0011542  11.9093 301.8413  0.99162666 51091
FENGYUN 3B              
1 37214U 10059A   26169.72770185 -.00000102  00000+0 -29551-4 0  9993
2 37214  98.9612 215.7492 0021974 179.6110 290.1335 14.14840791807649
SUOMI NPP               
1 37849U 11061A   26169.67977859  .00000055  00000+0  47195-4 0  9991
2 37849  98.7953 110.5456 0001453   3.1761 356.9424 14.19517654758654
METEOSAT-10 (MSG-3)     
1 38552U 12035B   26169.32463544 -.00000014  00000+0  00000+0 0  9993
2 38552   4.6751  61.0179 0001396   0.2073 322.5258  1.00266031 50868
METOP-B                 
1 38771U 12049A   26169.66784241  .00000087  00000+0  59817-4 0  9992
2 38771  98.6504 221.1376 0002144  15.8743 344.2501 14.21433134713478
INSAT-3D                
1 39216U 13038B   26169.68898808 -.00000346  00000+0  00000+0 0  9997
2 39216   1.9309  82.5221 0000583 320.9250 241.0058  1.00268562 47092
FENGYUN 3C              
1 39260U 13052A   26169.73997826  .00000077  00000+0  60269-4 0  9996
2 39260  98.4987 143.5435 0015166  23.3583 336.8278 14.15755395658781
METEOR-M 2              
1 40069U 14037A   26169.76457354  .00000134  00000+0  80662-4 0  9992
2 40069  98.5116 145.4473 0006674  40.5439 319.6235 14.21462063619540
HIMAWARI-8              
1 40267U 14060A   26169.63756919 -.00000282  00000+0  00000+0 0  9991
2 40267   0.0128  36.1636 0001072  55.6348 185.2663  1.00271223 42777
FENGYUN 2G              
1 40367U 14090A   26169.62949804 -.00000311  00000+0  00000+0 0  9994
2 40367   5.6433  72.7978 0003936 158.9318   1.4413  1.00271470 42011
METEOSAT-11 (MSG-4)     
1 40732U 15034A   26169.18385852  .00000056  00000+0  00000+0 0  9992
2 40732   3.2036  71.1007 0002500 345.8568 285.3054  1.00264280  7225
ELEKTRO-L 2             
1 41105U 15074A   26169.03651196 -.00000126  00000+0  00000+0 0  9991
2 41105   6.6975  70.5132 0000902 256.1704 298.2263  1.00270556 38515
SENTINEL-3A             
1 41335U 16011A   26169.68927954  .00000093  00000+0  56553-4 0  9998
2 41335  98.6250 237.0517 0001411 101.1895 258.9444 14.26732755538278
INSAT-3DR               
1 41752U 16054A   26169.62438470 -.00000083  00000+0  00000+0 0  9993
2 41752   0.1104  86.2264 0010530 187.5669 291.8132  1.00271058 35835
HIMAWARI-9              
1 41836U 16064A   26169.63756919 -.00000281  00000+0  00000+0 0  9999
2 41836   0.0152 295.1115 0000984 195.0581 146.9866  1.00270342 35227
GOES 16                 
1 41866U 16071A   26169.66027102 -.00000097  00000+0  00000+0 0  9993
2 41866   0.3460  85.5077 0000250 324.0383 350.3520  1.00271159 35116
FENGYUN 4A              
1 41882U 16077A   26169.67205584 -.00000364  00000+0  00000+0 0  9997
2 41882   2.3269  80.2603 0008695 153.4237  38.9022  1.00267698 34942
CYGFM05                 
1 41884U 16078A   26169.52615833  .00018897  00000+0  25573-3 0  9991
2 41884  34.9563 251.7231 0007102 164.6539 195.4402 15.56722595528964
CYGFM04                 
1 41885U 16078B   26169.55652588  .00022879  00000+0  25710-3 0  9991
2 41885  34.9309 219.1431 0006823 207.5066 152.5299 15.61577331529213
CYGFM02                 
1 41886U 16078C   26169.55458465  .00026934  00000+0  26865-3 0  9998
2 41886  34.9390 213.6514 0007894 208.8142 151.2149 15.64576545529380
CYGFM01                 
1 41887U 16078D   26169.57838941  .00019875  00000+0  26213-3 0  9995
2 41887  34.9392 252.4239 0006857 158.7046 201.3964 15.57403870528925
CYGFM08                 
1 41888U 16078E   26169.53548286  .00021660  00000+0  25781-3 0  9996
2 41888  34.9419 232.2513 0008477 189.9970 170.0587 15.60079570529181
CYGFM07                 
1 41890U 16078G   26169.55852597  .00021654  00000+0  25688-3 0  9993
2 41890  34.9432 220.4381 0007269 206.5978 153.4375 15.60178394529211
CYGFM03                 
1 41891U 16078H   26169.52953919  .00021660  00000+0  25707-3 0  9990
2 41891  34.9387 222.5679 0006710 194.5255 165.5278 15.60171185529181
